NORAD_CAT_ID,OBJECT_NAME,OBJECT_TYPE,EPOCH,MEAN_MOTION,ECCENTRICITY,INCLINATION,RA_OF_ASC_NODE,ARG_OF_PERICENTER,MEAN_ANOMALY,BSTAR,MEAN_MOTION_DOT,MEAN_MOTION_DDOT,TLE_LINE0,TLE_LINE1,TLE_LINE2,SEMIMAJOR_AXIS,PERIOD,APOGEE,PERIGEE,DECAYED
53887.0,STARLINK-5029,PAYLOAD,2023-03-20 10:00:00,15.08847005,0.000147,53.2171,156.2135,87.7969,272.3191,-0.00010016,-1.882e-05,0.0,0 STARLINK-5029,1 53887U 22119B   23079.41666711 -.00001882  00000-0 -10016-3 0  9991,2 53887  53.2171 156.2135 0001470  87.7969 272.3191 15.08847005 27847,6917.859,95.437,540.741,538.707,0.0
53887.0,STARLINK-5029,PAYLOAD,2023-03-21 05:04:37,15.08837805,0.0001315,53.2163,152.6449,96.5334,263.5808,1.4343e-05,-6e-07,0.0,0 STARLINK-5029,1 53887U 22119B   23080.21154504 -.00000060  00000-0  14343-4 0  9997,2 53887  53.2163 152.6449 0001315  96.5334 263.5808 15.08837805 27549,6917.887,95.438,540.662,538.842,0.0
53887.0,STARLINK-5029,PAYLOAD,2023-03-21 11:26:09,15.08842909,0.0001201,53.2169,151.4549,98.0286,262.0843,4.2112e-06,-2.21e-06,0.0,0 STARLINK-5029,1 53887U 22119B   23080.47650218 -.00000221  00000-0  42112-5 0  9993,2 53887  53.2169 151.4549 0001201  98.0286 262.0843 15.08842909 28006,6917.871,95.437,540.567,538.906,0.0
53887.0,STARLINK-5029,PAYLOAD,2023-03-22 04:55:25,15.0882981,0.0001299,53.217,148.1839,113.2629,246.85,-4.0825e-05,-9.37e-06,0.0,0 STARLINK-5029,1 53887U 22119B   23081.20515354 -.00000937  00000-0 -40825-4 0  9999,2 53887  53.2170 148.1839 0001299 113.2629 246.8500 15.08829810 27691,6917.912,95.438,540.675,538.878,0.0
53887.0,STARLINK-5029,PAYLOAD,2023-03-22 09:41:34,15.08830488,0.0001449,53.2172,147.2922,115.6946,244.4196,-1.14e-06,-3.06e-06,0.0,0 STARLINK-5029,1 53887U 22119B   23081.40387254 -.00000306  00000-0 -11400-5 0  9995,2 53887  53.2172 147.2922 0001449 115.6946 244.4196 15.08830488 28140,6917.909,95.438,540.777,538.772,0.0
53887.0,STARLINK-5029,PAYLOAD,2023-03-23 04:46:11,15.08838959,0.0001375,53.218,143.7242,123.3787,236.7337,2.2123e-05,6.4e-07,0.0,0 STARLINK-5029,1 53887U 22119B   23082.19874713  .00000064  00000-0  22123-4 0  9995,2 53887  53.2180 143.7242 0001375 123.3787 236.7337 15.08838959 27840,6917.884,95.438,540.7,538.797,0.0
53887.0,STARLINK-5029,PAYLOAD,2023-03-23 09:32:20,15.0884409,0.0001912,53.2179,142.8319,126.4059,233.711,-6.5703e-06,-3.93e-06,0.0,0 STARLINK-5029,1 53887U 22119B   23082.39746496 -.00000393  00000-0 -65703-5 0  9992,2 53887  53.2179 142.8319 0001912 126.4059 233.7110 15.08844090 28295,6917.868,95.437,541.056,538.41,0.0
53887.0,STARLINK-5029,PAYLOAD,2023-03-23 20:40:02,15.08851948,0.0001178,53.2178,140.7528,111.8706,248.2411,1.2706e-06,-2.68e-06,0.0,0 STARLINK-5029,1 53887U 22119B   23082.86113871 -.00000268  00000-0  12706-5 0  9994,2 53887  53.2178 140.7528 0001178 111.8706 248.2411 15.08851948 28367,6917.844,95.437,540.524,538.894,0.0
53887.0,STARLINK-5029,PAYLOAD,2023-03-24 03:01:34,15.08847782,9.85e-05,53.2173,139.5618,102.2284,257.8819,9.7607e-05,1.266e-05,0.0,0 STARLINK-5029,1 53887U 22119B   23083.12609821  .00001266  00000-0  97607-4 0  9999,2 53887  53.2173 139.5618 0000985 102.2284 257.8819 15.08847782 27984,6917.857,95.437,540.403,539.04,0.0
53887.0,STARLINK-5029,PAYLOAD,2023-03-24 10:58:28,15.08868317,0.0001228,53.2179,138.0728,107.7426,252.3701,0.00024627,3.637e-05,0.0,0 STARLINK-5029,1 53887U 22119B   23083.45727727  .00003637  00000-0  24627-3 0  9996,2 53887  53.2179 138.0728 0001228 107.7426 252.3701 15.08868317 28039,6917.794,95.436,540.508,538.809,0.0
53887.0,STARLINK-5029,PAYLOAD,2023-03-24 20:30:49,15.08840777,0.0001195,53.2184,136.2908,99.3174,260.7953,-3.0135e-06,-3.36e-06,0.0,0 STARLINK-5029,1 53887U 22119B   23083.85474075 -.00000336  00000-0 -30135-5 0  9993,2 53887  53.2184 136.2908 0001195  99.3174 260.7953 15.08840777 28092,6917.878,95.438,540.57,538.916,0.0
53887.0,STARLINK-5029,PAYLOAD,2023-03-25 02:52:24,15.08817656,0.0001645,53.2182,135.1016,98.7757,261.3421,-0.00023911,-4.089e-05,0.0,0 STARLINK-5029,1 53887U 22119B   23084.11972635 -.00004089  00000-0 -23911-3 0  9999,2 53887  53.2182 135.1016 0001645  98.7757 261.3421 15.08817656 28130,6917.949,95.439,540.952,538.676,0.0
53887.0,STARLINK-5029,PAYLOAD,2023-03-25 20:21:38,15.08826741,0.000138,53.2188,131.8304,103.3842,256.7304,-0.00016223,-2.868e-05,0.0,0 STARLINK-5029,1 53887U 22119B   23084.84836605 -.00002868  00000-0 -16223-3 0  9996,2 53887  53.2188 131.8304 0001380 103.3842 256.7304 15.08826741 28248,6917.921,95.438,540.741,538.831,0.0
53887.0,STARLINK-5029,PAYLOAD,2023-03-26 10:40:05,15.08850069,0.0001313,53.2181,129.1533,105.6923,254.4214,-0.00014517,-2.598e-05,0.0,0 STARLINK-5029,1 53887U 22119B   23085.44451264 -.00002598  00000-0 -14517-3 0  9991,2 53887  53.2181 129.1533 0001313 105.6923 254.4214 15.08850069 28331,6917.85,95.437,540.623,538.806,0.0
53887.0,STARLINK-5029,PAYLOAD,2023-03-26 20:12:24,15.08854261,0.0001138,53.2183,127.3705,107.2992,252.8124,-0.00017513,-3.075e-05,0.0,0 STARLINK-5029,1 53887U 22119B   23085.84194912 -.00003075  00000-0 -17513-3 0  9999,2 53887  53.2183 127.3705 0001138 107.2992 252.8124 15.08854261 28816,6917.837,95.437,540.489,538.915,0.0
53887.0,STARLINK-5029,PAYLOAD,2023-03-27 02:34:00,15.08786377,8.37e-05,53.2192,126.1815,187.0614,173.0367,-4.5373e-06,-3.6e-06,0.0,0 STARLINK-5029,1 53887U 22119B   23086.10694468 -.00000360  00000-0 -45373-5 0  9991,2 53887  53.2192 126.1815 0000837 187.0614 173.0367 15.08786377 28430,6918.044,95.441,540.488,539.33,0.0
53887.0,STARLINK-5029,PAYLOAD,2023-03-27 08:55:28,15.08839749,0.0002138,53.2189,124.9927,147.5576,212.5548,0.00035573,5.378e-05,0.0,0 STARLINK-5029,1 53887U 22119B   23086.37186075  .00005378  00000-0  35573-3 0  9991,2 53887  53.2189 124.9927 0002138 147.5576 212.5548 15.08839749 28476,6917.881,95.438,541.225,538.267,0.0
53887.0,STARLINK-5029,PAYLOAD,2023-03-27 12:06:15,15.08838902,0.0001109,53.2173,124.4,130.0119,230.0971,0.0004035,6.139e-05,0.0,0 STARLINK-5029,1 53887U 22119B   23086.50434158  .00006139  00000-0  40350-3 0  9999,2 53887  53.2173 124.4000 0001109 130.0119 230.0971 15.08838902 28917,6917.884,95.438,540.516,538.982,0.0
53887.0,STARLINK-5029,PAYLOAD,2023-03-27 20:03:10,15.08851614,0.0001374,53.2168,122.9133,140.0584,220.0509,0.00026377,3.914e-05,0.0,0 STARLINK-5029,1 53887U 22119B   23086.83553666  .00003914  00000-0  26377-3 0  9992,2 53887  53.2168 122.9133 0001374 140.0584 220.0509 15.08851614 28968,6917.845,95.437,540.66,538.759,0.0
53887.0,STARLINK-5029,PAYLOAD,2023-03-28 02:24:44,15.08838723,0.0001297,53.2179,121.7208,101.1656,258.9482,2.7747e-05,1.54e-06,0.0,0 STARLINK-5029,1 53887U 22119B   23087.10051948  .00000154  00000-0  27747-4 0  9995,2 53887  53.2179 121.7208 0001297 101.1656 258.9482 15.08838723 28586,6917.884,95.438,540.647,538.852,0.0
53887.0,STARLINK-5029,PAYLOAD,2023-03-28 11:57:03,15.08844131,0.0001453,53.2172,119.9349,110.3547,249.7601,2.6809e-05,1.39e-06,0.0,0 STARLINK-5029,1 53887U 22119B   23087.49795477  .00000139  00000-0  26809-4 0  9990,2 53887  53.2172 119.9349 0001453 110.3547 249.7601 15.08844131 29064,6917.868,95.437,540.738,538.728,0.0
53887.0,STARLINK-5029,PAYLOAD,2023-03-29 08:37:04,15.0884993,0.0002026,53.2168,116.0669,143.6741,216.4389,-0.00015845,-2.81e-05,0.0,0 STARLINK-5029,1 53887U 22119B   23088.35907490 -.00002810  00000-0 -15845-3 0  9993,2 53887  53.2168 116.0669 0002026 143.6741 216.4389 15.08849930 28777,6917.85,95.437,541.117,538.313,0.0
53887.0,STARLINK-5029,PAYLOAD,2023-03-30 02:06:18,15.08838059,0.0001481,53.2166,112.7953,111.0358,249.0792,-2.6268e-05,-7.06e-06,0.0,0 STARLINK-5029,1 53887U 22119B   23089.08771820 -.00000706  00000-0 -26268-4 0  9994,2 53887  53.2166 112.7953 0001481 111.0358 249.0792 15.08838059 28883,6917.886,95.438,540.776,538.727,0.0
53887.0,STARLINK-5029,PAYLOAD,2023-03-30 08:27:51,15.0884228,0.0001308,53.218,111.61,99.8077,260.3063,3.0413e-05,1.96e-06,0.0,0 STARLINK-5029,1 53887U 22119B   23089.35267410  .00000196  00000-0  30413-4 0  9997,2 53887  53.2180 111.6100 0001308  99.8077 260.3063 15.08842280 29340,6917.873,95.437,540.643,538.834,0.0
53887.0,STARLINK-5029,PAYLOAD,2023-03-31 11:29:24,15.08843001,0.0001221,53.2176,106.5536,94.0738,266.0394,2.6437e-05,1.33e-06,0.0,0 STARLINK-5029,1 53887U 22119B   23090.47875454  .00000133  00000-0  26437-4 0  9997,2 53887  53.2176 106.5536 0001221  94.0738 266.0394 15.08843001 29090,6917.871,95.437,540.581,538.892,0.0
53887.0,STARLINK-5029,PAYLOAD,2023-03-31 17:50:57,15.08835481,0.0001255,53.218,105.3644,99.7178,260.3956,1.4771e-05,-5.3e-07,0.0,0 STARLINK-5029,1 53887U 22119B   23090.74372027 -.00000053  00000-0  14771-4 0  9995,2 53887  53.2180 105.3644 0001255  99.7178 260.3956 15.08835481 29138,6917.894,95.438,540.627,538.891,0.0
53887.0,STARLINK-5029,PAYLOAD,2023-04-01 08:09:25,15.08836358,0.0001281,53.2186,102.6885,100.2589,259.8548,-2.3721e-05,-6.65e-06,0.0,0 STARLINK-5029,1 53887U 22119B   23091.33988309 -.00000665  00000-0 -23721-4 0  9992,2 53887  53.2186 102.6885 0001281 100.2589 259.8548 15.08836358 29644,6917.892,95.438,540.643,538.87,0.0
53887.0,STARLINK-5029,PAYLOAD,2023-04-02 04:49:26,15.08837344,0.0001246,53.2181,98.8216,99.0095,261.1039,4.5677e-06,-2.15e-06,0.0,0 STARLINK-5029,1 53887U 22119B   23092.20100272 -.00000215  00000-0  45677-5 0  9999,2 53887  53.2181  98.8216 0001246  99.0095 261.1039 15.08837344 29356,6917.889,95.438,540.615,538.892,0.0
53887.0,STARLINK-5029,PAYLOAD,2023-04-02 09:35:35,15.08839067,0.0001353,53.2179,97.9288,108.62,251.4939,2.9355e-05,1.79e-06,0.0,0 STARLINK-5029,1 53887U 22119B   23092.39972070  .00000179  00000-0  29355-4 0  9994,2 53887  53.2179  97.9288 0001353 108.6200 251.4939 15.08839067 29801,6917.883,95.438,540.684,538.812,0.0
53887.0,STARLINK-5029,PAYLOAD,2023-04-02 17:32:31,15.08852061,0.0001158,53.2178,96.4425,98.0918,262.0206,-0.00014823,-2.647e-05,0.0,0 STARLINK-5029,1 53887U 22119B   23092.73091773 -.00002647  00000-0 -14823-3 0  9991,2 53887  53.2178  96.4425 0001158  98.0918 262.0206 15.08852061 29431,6917.844,95.437,540.51,538.907,0.0
